[{"OBJECT_NAME":"GEESAT-6 08","OBJECT_ID":"2025-214J","EPOCH":"2026-03-09T22:14:05.578944","MEAN_MOTION":14.83021735,"ECCENTRICITY":0.00096397,"INCLINATION":49.9907,"RA_OF_ASC_NODE":48.1729,"ARG_OF_PERICENTER":195.6006,"MEAN_ANOMALY":164.4636,"EPHEMERIS_TYPE":0,"CLASSIFICATION_TYPE":"U","NORAD_CAT_ID":65720,"ELEMENT_SET_NO":999,"REV_AT_EPOCH":2477,"BSTAR":0.00036802718,"MEAN_MOTION_DOT":2.801e-5,"MEAN_MOTION_DDOT":0},{"OBJECT_NAME":"SL-14 R\/B","OBJECT_ID":"1994-066B","EPOCH":"2026-03-09T12:27:40.446432","MEAN_MOTION":14.80893946,"ECCENTRICITY":0.00215923,"INCLINATION":82.537,"RA_OF_ASC_NODE":90.4426,"ARG_OF_PERICENTER":230.6379,"MEAN_ANOMALY":129.2922,"EPHEMERIS_TYPE":0,"CLASSIFICATION_TYPE":"U","NORAD_CAT_ID":23318,"ELEMENT_SET_NO":999,"REV_AT_EPOCH":69359,"BSTAR":5.612059e-5,"MEAN_MOTION_DOT":4.58e-6,"MEAN_MOTION_DDOT":0}]
